line1,line2,validFromUtcTime
1 00000U 00000E   26001.00000000  .00000000  00000-0  27772-4 0    01,2 00000  88.8733 120.3345 0009793 270.0599 179.8688 13.55230758    03,2026-01-01T00:00:00Z
1 00000U 00000E   26002.00000000  .00000000  00000-0  27772-4 0    02,2 00000  88.8736 120.2198 0009911 266.6630  19.2087 13.55232482    06,2026-01-02T00:00:00Z
